GLOBALSTAR M063         
1 26081U 00008A   25088.38312586 -.00000039  00000+0  63335-3 0  9999
2 26081  51.9971 321.7505 0004849 153.9285  16.9766 11.86167640148101
GLOBALSTAR M062         
1 26082U 00008B   25088.16610656 -.00000060  00000+0  27531-3 0  9997
2 26082  51.9868 331.1021 0006460 305.9328 221.6670 12.43461913486662
GLOBALSTAR M060         
1 26083U 00008C   25088.30018256 -.00000079  00000+0  11828-3 0  9994
2 26083  52.0012 279.4135 0002690 335.4171 195.9200 12.17657574142630
GLOBALSTAR M064         
1 26084U 00008D   25088.16482185 -.00000080  00000+0  47240-4 0  9995
2 26084  52.0033  62.0898 0001295 267.6588  92.4096 11.88532044157589
GLOBALSTAR M065         
1 31571U 07020A   25088.30196324  .00000006  00000+0  61584-3 0  9999
2 31571  51.9873 109.4125 0010515 129.9705 243.2227 12.62003359823320
GLOBALSTAR M069         
1 31573U 07020C   25088.32131353 -.00000075  00000+0  16695-3 0  9994
2 31573  51.9941  76.9927 0000517  15.7590 122.2667 12.42143464824247
GLOBALSTAR M072         
1 31574U 07020D   25088.31632228 -.00000080  00000+0  53641-4 0  9990
2 31574  52.0140 204.5988 0001776 168.6372 218.8112 11.91777124821941
GLOBALSTAR M071         
1 31576U 07020F   25088.28619267 -.00000097  00000+0 -59171-4 0  9999
2 31576  52.0046  94.7192 0000634 304.9275  68.5803 12.18251603485204
